start=new Date('2022-09-17T00:00:00.000Z').valueOf();
sats=[{"NORAD_CAT_ID":"47627","MEAN_ANOMALY":"298.3188","PERIOD":"95.592","OBJECT_ID":"2021-012H","MEAN_MOTION_DDOT":"0.0000000000000","REV_AT_EPOCH":"8988","ELEMENT_SET_NO":"999","RCS_SIZE":"LARGE","ARG_OF_PERICENTER":"61.7963","ECCENTRICITY":"0.00016040","SEMIMAJOR_AXIS":"6925.346","DECAY_DATE":null,"OBJECT_TYPE":"PAYLOAD","MEAN_ELEMENT_THEORY":"SGP4","TLE_LINE1":"1 47627U 21012H   22259.77077685  .00003052  00000-0  22367-3 0  9992","RA_OF_ASC_NODE":"277.5061","TIME_SYSTEM":"UTC","PERIAPSIS":"546.100","MEAN_MOTION":"15.06400790","FILE":"3575787","EPOCH":"2022-09-16T18:29:55.119840","COUNTRY_CODE":"US","EPHEMERIS_TYPE":"0","BSTAR":"0.00022367000000","INCLINATION":"53.0555","GP_ID":"212748572","LAUNCH_DATE":"2021-02-16","REF_FRAME":"TEME","SITE":"AFETR","TLE_LINE2":"2 47627  53.0555 277.5061 0001604  61.7963 298.3188 15.06400790 89886","OBJECT_NAME":"STARLINK-1972","CENTER_NAME":"EARTH","CLASSIFICATION_TYPE":"U","MEAN_MOTION_DOT":"0.00003052","APOAPSIS":"548.322"},{"PERIAPSIS":"546.265","RA_OF_ASC_NODE":"12.6833","TIME_SYSTEM":"UTC","TLE_LINE1":"1 47628U 21012J   22259.72973999  .00000304  00000-0  39303-4 0  9997","MEAN_ELEMENT_THEORY":"SGP4","OBJECT_TYPE":"PAYLOAD","DECAY_DATE":null,"SEMIMAJOR_AXIS":"6925.358","ARG_OF_PERICENTER":"83.7628","ECCENTRICITY":"0.00013840","RCS_SIZE":"LARGE","ELEMENT_SET_NO":"999","REV_AT_EPOCH":"8857","MEAN_MOTION_DDOT":"0.0000000000000","OBJECT_ID":"2021-012J","NORAD_CAT_ID":"47628","MEAN_ANOMALY":"276.3519","PERIOD":"95.592","APOAPSIS":"548.182","MEAN_MOTION_DOT":"0.00000304","CLASSIFICATION_TYPE":"U","SITE":"AFETR","TLE_LINE2":"2 47628  53.0562  12.6833 0001384  83.7628 276.3519 15.06396877 88576","CENTER_NAME":"EARTH","OBJECT_NAME":"STARLINK-1973","REF_FRAME":"TEME","LAUNCH_DATE":"2021-02-16","GP_ID":"212747320","INCLINATION":"53.0562","EPHEMERIS_TYPE":"0","BSTAR":"0.00003930300000","COUNTRY_CODE":"US","EPOCH":"2022-09-16T17:30:49.535136","MEAN_MOTION":"15.06396877","FILE":"3575787"},{"DECAY_DATE":null,"SEMIMAJOR_AXIS":"6925.361","OBJECT_TYPE":"PAYLOAD","ARG_OF_PERICENTER":"72.6408","ECCENTRICITY":"0.00015990","MEAN_ELEMENT_THEORY":"SGP4","TLE_LINE1":"1 47629U 21012K   22259.71226277  .00002360  00000-0  17730-3 0  9990","PERIAPSIS":"546.119","TIME_SYSTEM":"UTC","RA_OF_ASC_NODE":"252.7805","OBJECT_ID":"2021-012K","MEAN_ANOMALY":"287.4756","PERIOD":"95.592","NORAD_CAT_ID":"47629","MEAN_MOTION_DDOT":"0.0000000000000","REV_AT_EPOCH":"9023","RCS_SIZE":"LARGE","ELEMENT_SET_NO":"999","TLE_LINE2":"2 47629  53.0531 252.7805 0001599  72.6408 287.4756 15.06395819 90237","SITE":"AFETR","OBJECT_NAME":"STARLINK-1974","CENTER_NAME":"EARTH","CLASSIFICATION_TYPE":"U","MEAN_MOTION_DOT":"0.00002360","APOAPSIS":"548.334","EPOCH":"2022-09-16T17:05:39.503328","FILE":"3575787","MEAN_MOTION":"15.06395819","COUNTRY_CODE":"US","INCLINATION":"53.0531","BSTAR":"0.00017730000000","EPHEMERIS_TYPE":"0","LAUNCH_DATE":"2021-02-16","REF_FRAME":"TEME","GP_ID":"212747570"},{"MEAN_ELEMENT_THEORY":"SGP4","SEMIMAJOR_AXIS":"6925.338","DECAY_DATE":null,"OBJECT_TYPE":"PAYLOAD","ARG_OF_PERICENTER":"73.9069","ECCENTRICITY":"0.00013730","PERIAPSIS":"546.252","RA_OF_ASC_NODE":"353.0565","TIME_SYSTEM":"UTC","TLE_LINE1":"1 47630U 21012L   22259.66987338  .00000300  00000-0  39040-4 0  9999","REV_AT_EPOCH":"8882","MEAN_MOTION_DDOT":"0.0000000000000","OBJECT_ID":"2021-012L","PERIOD":"95.592","MEAN_ANOMALY":"286.2071","NORAD_CAT_ID":"47630","RCS_SIZE":"LARGE","ELEMENT_SET_NO":"999","CLASSIFICATION_TYPE":"U","TLE_LINE2":"2 47630  53.0558 353.0565 0001373  73.9069 286.2071 15.06403520 88821","OBJECT_NAME":"STARLINK-1983","SITE":"AFETR","CENTER_NAME":"EARTH","APOAPSIS":"548.154","MEAN_MOTION_DOT":"0.00000300","COUNTRY_CODE":"US","EPOCH":"2022-09-16T16:04:37.060032","FILE":"3575787","MEAN_MOTION":"15.06403520","LAUNCH_DATE":"2021-02-16","REF_FRAME":"TEME","GP_ID":"212747822","INCLINATION":"53.0558","BSTAR":"0.00003904000000","EPHEMERIS_TYPE":"0"},{"ARG_OF_PERICENTER":"71.9856","ECCENTRICITY":"0.00014490","DECAY_DATE":null,"OBJECT_TYPE":"PAYLOAD","SEMIMAJOR_AXIS":"6925.359","MEAN_ELEMENT_THEORY":"SGP4","TLE_LINE1":"1 47632U 21012N   22259.46389456  .00002418  00000-0  18117-3 0  9999","TIME_SYSTEM":"UTC","RA_OF_ASC_NODE":"278.8882","PERIAPSIS":"546.220","PERIOD":"95.592","MEAN_ANOMALY":"288.1291","NORAD_CAT_ID":"47632","OBJECT_ID":"2021-012N","MEAN_MOTION_DDOT":"0.0000000000000","REV_AT_EPOCH":"8984","ELEMENT_SET_NO":"999","RCS_SIZE":"LARGE","TLE_LINE2":"2 47632  53.0535 278.8882 0001449  71.9856 288.1291 15.06396725 89846","SITE":"AFETR","CENTER_NAME":"EARTH","OBJECT_NAME":"STARLINK-1992","CLASSIFICATION_TYPE":"U","MEAN_MOTION_DOT":"0.00002418","APOAPSIS":"548.227","FILE":"3575604","MEAN_MOTION":"15.06396725","EPOCH":"2022-09-16T11:08:00.489984","COUNTRY_CODE":"US","BSTAR":"0.00018117000000","EPHEMERIS_TYPE":"0","INCLINATION":"53.0535","GP_ID":"212717769","LAUNCH_DATE":"2021-02-16","REF_FRAME":"TEME"},{"MEAN_MOTION_DOT":"0.00002104","APOAPSIS":"548.162","TLE_LINE2":"2 47633  53.0541  12.9340 0001343  51.5190 308.5919 15.06394158 88580","SITE":"AFETR","CENTER_NAME":"EARTH","OBJECT_NAME":"STARLINK-2009","CLASSIFICATION_TYPE":"U","INCLINATION":"53.0541","BSTAR":"0.00016015000000","EPHEMERIS_TYPE":"0","LAUNCH_DATE":"2021-02-16","REF_FRAME":"TEME","GP_ID":"212746821","EPOCH":"2022-09-16T16:21:50.352192","FILE":"3575787","MEAN_MOTION":"15.06394158","COUNTRY_CODE":"US","TLE_LINE1":"1 47633U 21012P   22259.68183278  .00002104  00000-0  16015-3 0  9995","PERIAPSIS":"546.301","TIME_SYSTEM":"UTC","RA_OF_ASC_NODE":"12.9340","DECAY_DATE":null,"SEMIMAJOR_AXIS":"6925.366","OBJECT_TYPE":"PAYLOAD","ARG_OF_PERICENTER":"51.5190","ECCENTRICITY":"0.00013430","MEAN_ELEMENT_THEORY":"SGP4","RCS_SIZE":"LARGE","ELEMENT_SET_NO":"999","OBJECT_ID":"2021-012P","PERIOD":"95.593","MEAN_ANOMALY":"308.5919","NORAD_CAT_ID":"47633","MEAN_MOTION_DDOT":"0.0000000000000","REV_AT_EPOCH":"8858"},{"RA_OF_ASC_NODE":"13.3180","TIME_SYSTEM":"UTC","PERIAPSIS":"546.448","TLE_LINE1":"1 47634U 21012Q   22259.59062472  .00000449  00000-0  49020-4 0  9991","MEAN_ELEMENT_THEORY":"SGP4","ARG_OF_PERICENTER":"71.2117","ECCENTRICITY":"0.00011430","DECAY_DATE":null,"OBJECT_TYPE":"PAYLOAD","SEMIMAJOR_AXIS":"6925.375","ELEMENT_SET_NO":"999","RCS_SIZE":"LARGE","REV_AT_EPOCH":"8854","MEAN_MOTION_DDOT":"0.0000000000000","NORAD_CAT_ID":"47634","PERIOD":"95.593","MEAN_ANOMALY":"288.8996","OBJECT_ID":"2021-012Q","APOAPSIS":"548.031","MEAN_MOTION_DOT":"0.00000449","CLASSIFICATION_TYPE":"U","TLE_LINE2":"2 47634  53.0587  13.3180 0001143  71.2117 288.8996 15.06391454 88541","CENTER_NAME":"EARTH","SITE":"AFETR","OBJECT_NAME":"STARLINK-2010","GP_ID":"212747071","LAUNCH_DATE":"2021-02-16","REF_FRAME":"TEME","EPHEMERIS_TYPE":"0","BSTAR":"0.00004902000000","INCLINATION":"53.0587","COUNTRY_CODE":"US","MEAN_MOTION":"15.06391454","FILE":"3575787","EPOCH":"2022-09-16T14:10:29.975808"},{"OBJECT_TYPE":"PAYLOAD","DECAY_DATE":null,"SEMIMAJOR_AXIS":"6925.367","ARG_OF_PERICENTER":"70.8990","ECCENTRICITY":"0.00015030","MEAN_ELEMENT_THEORY":"SGP4","TLE_LINE1":"1 47635U 21012R   22259.35057932 -.00000089  00000-0  12937-4 0  9999","PERIAPSIS":"546.191","TIME_SYSTEM":"UTC","RA_OF_ASC_NODE":"279.3998","OBJECT_ID":"2021-012R","MEAN_ANOMALY":"289.2161","PERIOD":"95.593","NORAD_CAT_ID":"47635","MEAN_MOTION_DDOT":"0.0000000000000","REV_AT_EPOCH":"8984","RCS_SIZE":"LARGE","ELEMENT_SET_NO":"999","SITE":"AFETR","TLE_LINE2":"2 47635  53.0551 279.3998 0001503  70.8990 289.2161 15.06393888 89844","OBJECT_NAME":"STARLINK-2012","CENTER_NAME":"EARTH","CLASSIFICATION_TYPE":"U","MEAN_MOTION_DOT":"-0.00000089","APOAPSIS":"548.273","EPOCH":"2022-09-16T08:24:50.053248","FILE":"3575604","MEAN_MOTION":"15.06393888","COUNTRY_CODE":"US","INCLINATION":"53.0551","BSTAR":"0.00001293700000","EPHEMERIS_TYPE":"0","REF_FRAME":"TEME","LAUNCH_DATE":"2021-02-16","GP_ID":"212717519"},{"TLE_LINE1":"1 47636U 21012S   22259.64407566  .00007228  00000-0  50419-3 0  9991","TIME_SYSTEM":"UTC","RA_OF_ASC_NODE":"353.0859","PERIAPSIS":"546.639","ARG_OF_PERICENTER":"31.8232","ECCENTRICITY":"0.00010080","DECAY_DATE":null,"OBJECT_TYPE":"PAYLOAD","SEMIMAJOR_AXIS":"6925.472","MEAN_ELEMENT_THEORY":"SGP4","ELEMENT_SET_NO":"999","RCS_SIZE":"LARGE","NORAD_CAT_ID":"47636","PERIOD":"95.595","MEAN_ANOMALY":"328.2817","OBJECT_ID":"2021-012S","MEAN_MOTION_DDOT":"0.0000000000000","REV_AT_EPOCH":"8883","MEAN_MOTION_DOT":"0.00007228","APOAPSIS":"548.035","TLE_LINE2":"2 47636  53.0568 353.0859 0001008  31.8232 328.2817 15.06359782 88830","SITE":"AFETR","OBJECT_NAME":"STARLINK-2013","CENTER_NAME":"EARTH","CLASSIFICATION_TYPE":"U","EPHEMERIS_TYPE":"0","BSTAR":"0.00050419000000","INCLINATION":"53.0568","GP_ID":"212748573","REF_FRAME":"TEME","LAUNCH_DATE":"2021-02-16","MEAN_MOTION":"15.06359782","FILE":"3575787","EPOCH":"2022-09-16T15:27:28.137024","COUNTRY_CODE":"US"},{"RCS_SIZE":"LARGE","ELEMENT_SET_NO":"999","MEAN_MOTION_DDOT":"0.0000000000000","REV_AT_EPOCH":"8883","OBJECT_ID":"2021-012T","NORAD_CAT_ID":"47637","MEAN_ANOMALY":"280.4862","PERIOD":"95.592","PERIAPSIS":"546.328","RA_OF_ASC_NODE":"353.5107","TIME_SYSTEM":"UTC","TLE_LINE1":"1 47637U 21012T   22259.54823941  .00001574  00000-0  12452-3 0  9993","MEAN_ELEMENT_THEORY":"SGP4","OBJECT_TYPE":"PAYLOAD","DECAY_DATE":null,"SEMIMAJOR_AXIS":"6925.360","ECCENTRICITY":"0.00012950","ARG_OF_PERICENTER":"79.6273","REF_FRAME":"TEME","LAUNCH_DATE":"2021-02-16","GP_ID":"212718014","INCLINATION":"53.0565","EPHEMERIS_TYPE":"0","BSTAR":"0.00012452000000","COUNTRY_CODE":"US","EPOCH":"2022-09-16T13:09:27.885024","MEAN_MOTION":"15.06396195","FILE":"3575604","APOAPSIS":"548.122","MEAN_MOTION_DOT":"0.00001574","CLASSIFICATION_TYPE":"U","TLE_LINE2":"2 47637  53.0565 353.5107 0001295  79.6273 280.4862 15.06396195 88830","OBJECT_NAME":"STARLINK-2014","SITE":"AFETR","CENTER_NAME":"EARTH"}];
